NORAD_CAT_ID,OBJECT_NAME,OBJECT_TYPE,EPOCH,MEAN_MOTION,ECCENTRICITY,INCLINATION,RA_OF_ASC_NODE,ARG_OF_PERICENTER,MEAN_ANOMALY,BSTAR,MEAN_MOTION_DOT,MEAN_MOTION_DDOT,TLE_LINE0,TLE_LINE1,TLE_LINE2,SEMIMAJOR_AXIS,PERIOD,APOGEE,PERIGEE,DECAYED
49408.0,STARLINK-3151,PAYLOAD,2022-01-24 22:00:00,15.11742778,0.0001776,53.2171,144.3329,45.5429,197.4418,-0.041236,-0.00665674,0.0,0 STARLINK-3151,1 49408U 21104A   22024.91667824 -.00665674  00000-0 -41236-1 0  9999,2 49408  53.2171 144.3329 0001776  45.5429 197.4418 15.11742778 12552,6909.022,95.254,532.114,529.66,0.0
49408.0,STARLINK-3151,PAYLOAD,2022-01-25 14:00:01,15.10807695,0.000207,53.2173,141.3255,35.6989,236.3251,-0.042117,-0.00662636,0.0,0 STARLINK-3151,1 49408U 21104A   22025.58334491 -.00662636  00000-0 -42117-1 0  9998,2 49408  53.2173 141.3255 0002070  35.6989 236.3251 15.10807695  3612,6911.871999999999,95.313,535.168,532.307,0.0
49408.0,STARLINK-3151,PAYLOAD,2022-01-25 22:00:00,15.10343465,0.0001626999999999,53.2172,139.8228,49.4253,236.2765,-0.042938,-0.00666589,0.0,0 STARLINK-3151,1 49408U 21104A   22025.91667824 -.00666589  00000-0 -42938-1 0  9996,2 49408  53.2172 139.8228 0001627  49.4253 236.2765 15.10343465  3649,6913.2890000000025,95.343,536.279,534.029,0.0
49408.0,STARLINK-3151,PAYLOAD,2022-01-26 06:00:00,15.09874537,0.0001761999999999,53.2174,138.3204,41.929,256.8922,-0.043225,-0.00662661,0.0,0 STARLINK-3151,1 49408U 21104A   22026.25001157 -.00662661  00000-0 -43225-1 0  9992,2 49408  53.2174 138.3204 0001762  41.9290 256.8922 15.09874537 12759,6914.72,95.372,537.803,535.367,0.0
49408.0,STARLINK-3151,PAYLOAD,2022-01-26 14:00:01,15.09393531,0.0002116,53.2174,136.8227,32.9338,278.4461,-0.041423,-0.00628834,0.0,0 STARLINK-3151,1 49408U 21104A   22026.58334491 -.00628834  00000-0 -41423-1 0  9990,2 49408  53.2174 136.8227 0002116  32.9338 278.4461 15.09393531  3639,6916.189,95.403,539.5169999999998,536.591,0.0
49408.0,STARLINK-3151,PAYLOAD,2022-01-26 20:34:55,15.10284641,0.0001386999999999,53.2176,135.6105,84.9929,275.1222,-0.012566,-0.00202596,0.0,0 STARLINK-3151,1 49408U 21104A   22026.85758493 -.00202596  00000-0 -12566-1 0  9991,2 49408  53.2176 135.6105 0001387  84.9929 275.1222 15.10284641 11759,6913.468000000003,95.346,536.2919999999998,534.374,0.0
49408.0,STARLINK-3151,PAYLOAD,2022-01-26 22:00:00,15.08853385,0.0001549,53.2172,135.3243,57.6659,265.7149,-0.0017825,-0.00028555,0.0,0 STARLINK-3151,1 49408U 21104A   22026.91667824 -.00028555  00000-0 -17825-2 0  9990,2 49408  53.2172 135.3243 0001549  57.6659 265.7149 15.08853385 12851,6917.839,95.437,540.776,538.633,0.0
49408.0,STARLINK-3151,PAYLOAD,2022-01-27 14:03:50,15.09607882,0.0001163,53.2181,132.3314,64.0044,296.1069,-0.0087149,-0.00139215,0.0,0 STARLINK-3151,1 49408U 21104A   22027.58599779 -.00139215  00000-0 -87149-2 0  9999,2 49408  53.2181 132.3314 0001163  64.0044 296.1069 15.09607882 11868,6915.534000000002,95.389,538.2040000000002,536.595,0.0
49408.0,STARLINK-3151,PAYLOAD,2022-01-27 22:00:00,15.08856457,0.0001509,53.2162,130.8443,33.88,324.3234,-0.0020446,-0.00032695,0.0,0 STARLINK-3151,1 49408U 21104A   22027.91667824 -.00032695  00000-0 -20446-2 0  9994,2 49408  53.2162 130.8443 0001509  33.8800 324.3234 15.08856457 13000,6917.83,95.437,540.739,538.651,0.0
49408.0,STARLINK-3151,PAYLOAD,2022-01-28 06:00:02,15.08859186,0.0001413,53.2164,129.3468,54.8227,315.1033,-0.00070273,-0.0001146,0.0,0 STARLINK-3151,1 49408U 21104A   22028.25002315 -.00011460  00000-0 -70273-3 0  9991,2 49408  53.2164 129.3468 0001413  54.8227 315.1033 15.08859186 13065,6917.821999999999,95.436,540.664,538.7090000000002,0.0
49408.0,STARLINK-3151,PAYLOAD,2022-01-28 14:00:01,15.08832771,0.0001649,53.2164,127.8524,50.0797,331.3973,-8.853299999999999e-05,-1.696e-05,0.0,0 STARLINK-3151,1 49408U 21104A   22028.58334491 -.00001696  00000-0 -88533-4 0  9999,2 49408  53.2164 127.8524 0001649  50.0797 331.3973 15.08832771  3616,6917.901999999999,95.438,540.908,538.627,0.0
49408.0,STARLINK-3151,PAYLOAD,2022-01-28 22:00:00,15.08854757,0.0001587,53.2161,126.3552,49.6156,343.4442,-0.0019293,-0.00030874,0.0,0 STARLINK-3151,1 49408U 21104A   22028.91667824 -.00030874  00000-0 -19293-2 0  9990,2 49408  53.2161 126.3552 0001587  49.6156 343.4442 15.08854757  3615,6917.835,95.437,540.798,538.602,0.0
49408.0,STARLINK-3151,PAYLOAD,2022-01-29 14:00:01,15.08849918,0.0001721999999999,53.2164,123.3636,49.9031,6.3635,-0.00018275,-3.196e-05,0.0,0 STARLINK-3151,1 49408U 21104A   22029.58334491 -.00003196  00000-0 -18275-3 0  9992,2 49408  53.2164 123.3636 0001722  49.9031   6.3635 15.08849918 13268,6917.85,95.437,540.906,538.524,0.0
49408.0,STARLINK-3151,PAYLOAD,2022-01-29 22:00:00,15.08866837,0.0001705,53.2163,121.8662,50.9829,16.8931,-0.0037141,-0.00058958,0.0,0 STARLINK-3151,1 49408U 21104A   22029.91667824 -.00058958  00000-0 -37141-2 0  9996,2 49408  53.2163 121.8662 0001705  50.9829  16.8931 15.08866837  3620,6917.7980000000025,95.436,540.8430000000002,538.484,0.0
49408.0,STARLINK-3151,PAYLOAD,2022-01-30 14:00:01,15.08745709,0.0001754999999999,53.2171,118.8679,47.8397,43.2466,0.0059218,0.00094985,0.0,0 STARLINK-3151,1 49408U 21104A   22030.58334491  .00094985  00000-0  59218-2 0  9999,2 49408  53.2171 118.8679 0001755  47.8397  43.2466 15.08745709 13412,6918.169,95.444,541.248,538.819,0.0
49408.0,STARLINK-3151,PAYLOAD,2022-01-30 22:00:00,15.08829835,0.0001657,53.2167,117.3774,48.9583,53.6636,-0.0015039,-0.00024136,0.0,0 STARLINK-3151,1 49408U 21104A   22030.91667824 -.00024136  00000-0 -15039-2 0  9991,2 49408  53.2167 117.3774 0001657  48.9583  53.6636 15.08829835  3626,6917.911,95.438,540.923,538.63,0.0
49408.0,STARLINK-3151,PAYLOAD,2022-01-31 06:00:00,15.08823815,0.0001636999999999,53.217,115.8804,54.1962,59.9941,0.00095473,0.00014932,0.0,0 STARLINK-3151,1 49408U 21104A   22031.25001157  .00014932  00000-0  95473-3 0  9992,2 49408  53.2170 115.8804 0001637  54.1962  59.9941 15.08823815 13514,6917.93,95.439,540.927,538.6619999999998,0.0
49408.0,STARLINK-3151,PAYLOAD,2022-01-31 14:00:01,15.08818289,0.0001826,53.2171,114.3859,47.6144,78.22399999999998,0.0013645,0.00021482,0.0,0 STARLINK-3151,1 49408U 21104A   22031.58335648  .00021482  00000-0  13645-2 0  9991,2 49408  53.2171 114.3859 0001826  47.6144  78.2240 15.08818289  3613,6917.946999999999,95.439,541.075,538.549,0.0
49408.0,STARLINK-3151,PAYLOAD,2022-01-31 22:00:01,15.08849782,0.0001737,53.2171,112.8885,48.7285,88.6896,-0.0012842,-0.00020674,0.0,0 STARLINK-3151,1 49408U 21104A   22031.91668981 -.00020674  00000-0 -12842-2 0  9999,2 49408  53.2171 112.8885 0001737  48.7285  88.6896 15.08849782  3607,6917.85,95.437,540.9169999999998,538.514,0.0
49408.0,STARLINK-3151,PAYLOAD,2022-02-01 14:00:01,15.08845841,0.0001884,53.2174,109.8969,46.3297,114.3112,0.0016728,0.00026439,0.0,0 STARLINK-3151,1 49408U 21104A   22032.58335648  .00026439  00000-0  16728-2 0  9994,2 49408  53.2174 109.8969 0001884  46.3297 114.3112 15.08845841 13712,6917.863,95.437,541.031,538.424,0.0
49408.0,STARLINK-3151,PAYLOAD,2022-02-01 22:00:00,15.08872569,0.0001729,53.2174,108.3993,47.4285,124.7642,-0.0033749,-0.00053648,0.0,0 STARLINK-3151,1 49408U 21104A   22032.91667824 -.00053648  00000-0 -33749-2 0  9991,2 49408  53.2174 108.3993 0001729  47.4285 124.7642 15.08872569  3607,6917.781,95.435,540.842,538.45,0.0
49408.0,STARLINK-3151,PAYLOAD,2022-02-02 06:00:00,15.08852278,0.000173,53.2176,106.9025,51.7101,132.0859,-0.0022497,-0.00035926,0.0,0 STARLINK-3151,1 49408U 21104A   22033.25001157 -.00035926  00000-0 -22497-2 0  9997,2 49408  53.2176 106.9025 0001730  51.7101 132.0859 15.08852278 13817,6917.843000000003,95.437,540.905,538.511,0.0
49408.0,STARLINK-3151,PAYLOAD,2022-02-02 14:00:01,15.08804638,0.0001946,53.2175,105.4078,46.2347,149.1574,0.0023512,0.00037294,0.0,0 STARLINK-3151,1 49408U 21104A   22033.58334491  .00037294  00000-0  23512-2 0  9990,2 49408  53.2175 105.4078 0001946  46.2347 149.1574 15.08804638  3615,6917.988,95.44,541.2,538.507,0.0
49408.0,STARLINK-3151,PAYLOAD,2022-02-02 22:00:00,15.0883665,0.0001789,53.2173,103.91,48.9617,158.0017,-0.00069311,-0.00011301,0.0,0 STARLINK-3151,1 49408U 21104A   22033.91667824 -.00011301  00000-0 -69311-3 0  9997,2 49408  53.2173 103.9100 0001789  48.9617 158.0017 15.08836650 13910,6917.891,95.438,540.993,538.518,0.0
49408.0,STARLINK-3151,PAYLOAD,2022-02-03 14:00:01,15.08822422,0.0001957,53.2172,100.9186,46.179,183.9719,0.0025595,0.00040662,0.0,0 STARLINK-3151,1 49408U 21104A   22034.58334491  .00040662  00000-0  25595-2 0  9997,2 49408  53.2172 100.9186 0001957  46.1790 183.9719 15.08822422 14019,6917.934,95.439,541.153,538.445,0.0
49408.0,STARLINK-3151,PAYLOAD,2022-02-03 22:00:01,15.08855833,0.0001795,53.2169,99.4206,49.4859,192.3318,-0.0001184,-2.173e-05,0.0,0 STARLINK-3151,1 49408U 21104A   22034.91668981 -.00002173  00000-0 -11840-3 0  9994,2 49408  53.2169  99.4206 0001795  49.4859 192.3318 15.08855833  3617,6917.831999999999,95.437,540.939,538.455,0.0
49408.0,STARLINK-3151,PAYLOAD,2022-02-04 14:00:01,15.08840963,0.0001866,53.2167,96.4291,44.4086,220.6841,0.0018501,0.0002928,0.0,0 STARLINK-3151,1 49408U 21104A   22035.58335648  .00029280  00000-0  18501-2 0  9995,2 49408  53.2167  96.4291 0001866  44.4086 220.6841 15.08840963 14168,6917.877,95.437,541.033,538.452,0.0
49408.0,STARLINK-3151,PAYLOAD,2022-02-04 22:00:00,15.08853832,0.000161,53.2164,94.9309,45.6242,231.0171,-0.0024596,-0.00039235,0.0,0 STARLINK-3151,1 49408U 21104A   22035.91667824 -.00039235  00000-0 -24596-2 0  9990,2 49408  53.2164  94.9309 0001610  45.6242 231.0171 15.08853832  3576,6917.8380000000025,95.437,540.817,538.589,0.0
49408.0,STARLINK-3151,PAYLOAD,2022-02-05 06:00:00,15.08838937,0.0001574,53.2164,93.4348,46.469,241.7673,-0.00056639,-9.291e-05,0.0,0 STARLINK-3151,1 49408U 21104A   22036.25001157 -.00009291  00000-0 -56639-3 0  9992,2 49408  53.2164  93.4348 0001574  46.4690 241.7673 15.08838937 14260,6917.884,95.438,540.8380000000002,538.66,0.0
